{
  "type": "FeatureCollection",
  "name": "building_footprints_map",
  "crs": {
    "type": "name",
    "properties": {
      "name": "local-planar-meter-current-epsg0"
    }
  },
  "features": [
    {
      "type": "Feature",
      "properties": {
        "dataset": "park_building_footprint",
        "building_id": "BLD_A_001",
        "name": "西部生产装置区蓝顶厂房",
        "zone_code": "A",
        "source_facility_id": "pa-west-north",
        "source_facility_name": "西北生产装置区",
        "type": "production",
        "is_hazard": 1,
        "personnel": 24,
        "confidence": "medium",
        "status": "pending",
        "source": "s3m_oblique_manual_interpretation_draft",
        "precisionLevel": "building_footprint_draft",
        "needsDesktopRefinement": true,
        "remark": "基于三维斜视图和设施区底稿自动切分的建筑单体草稿，需在 iDesktopX 中对照三维瓦片最终校核。",
        "mapX": 334.84,
        "mapY": 290.72,
        "s3mX": -1096.16,
        "s3mY": 261.858,
        "longitude": 118.78354841,
        "latitude": 32.03738843
      },
      "geometry": {
        "type": "Polygon",
        "coordinates": [
          [
            [
              268.04,
              269.6
            ],
            [
              401.64,
              269.6
            ],
            [
              401.64,
              311.84
            ],
            [
              268.04,
              311.84
            ],
            [
              268.04,
              269.6
            ]
          ]
        ]
      }
    },
    {
      "type": "Feature",
      "properties": {
        "dataset": "park_building_footprint",
        "building_id": "BLD_A_002",
        "name": "西部生产装置框架区",
        "zone_code": "A",
        "source_facility_id": "pa-west-north",
        "source_facility_name": "西北生产装置区",
        "type": "production",
        "is_hazard": 1,
        "personnel": 8,
        "confidence": "low",
        "status": "pending",
        "source": "s3m_oblique_manual_interpretation_draft",
        "precisionLevel": "building_footprint_draft",
        "needsDesktopRefinement": true,
        "remark": "基于三维斜视图和设施区底稿自动切分的建筑单体草稿，需在 iDesktopX 中对照三维瓦片最终校核。",
        "mapX": 481.8,
        "mapY": 292.48,
        "s3mX": -872.43,
        "s3mY": 258.127,
        "longitude": 118.78510579,
        "latitude": 32.03737262
      },
      "geometry": {
        "type": "Polygon",
        "coordinates": [
          [
            [
              421.68,
              266.08
            ],
            [
              541.92,
              266.08
            ],
            [
              541.92,
              318.88
            ],
            [
              421.68,
              318.88
            ],
            [
              421.68,
              266.08
            ]
          ]
        ]
      }
    },
    {
      "type": "Feature",
      "properties": {
        "dataset": "park_building_footprint",
        "building_id": "BLD_A_003",
        "name": "西部北侧辅助厂房",
        "zone_code": "A",
        "source_facility_id": "pa-west-north",
        "source_facility_name": "西北生产装置区",
        "type": "utility",
        "is_hazard": 0,
        "personnel": 4,
        "confidence": "low",
        "status": "pending",
        "source": "s3m_oblique_manual_interpretation_draft",
        "precisionLevel": "building_footprint_draft",
        "needsDesktopRefinement": true,
        "remark": "基于三维斜视图和设施区底稿自动切分的建筑单体草稿，需在 iDesktopX 中对照三维瓦片最终校核。",
        "mapX": 338.18,
        "mapY": 375.2,
        "s3mX": -1091.076,
        "s3mY": 82.727,
        "longitude": 118.7835838,
        "latitude": 32.03662954
      },
      "geometry": {
        "type": "Polygon",
        "coordinates": [
          [
            [
              281.4,
              350.56
            ],
            [
              394.96,
              350.56
            ],
            [
              394.96,
              399.84
            ],
            [
              281.4,
              399.84
            ],
            [
              281.4,
              350.56
            ]
          ]
        ]
      }
    },
    {
      "type": "Feature",
      "properties": {
        "dataset": "park_building_footprint",
        "building_id": "BLD_I_001",
        "name": "西南罐组一",
        "zone_code": "I",
        "source_facility_id": "pa-west-south",
        "source_facility_name": "西南储罐与泵区",
        "type": "tank",
        "is_hazard": 1,
        "personnel": 2,
        "confidence": "medium",
        "status": "pending",
        "source": "s3m_oblique_manual_interpretation_draft",
        "precisionLevel": "building_footprint_draft",
        "needsDesktopRefinement": true,
        "remark": "基于三维斜视图和设施区底稿自动切分的建筑单体草稿，需在 iDesktopX 中对照三维瓦片最终校核。",
        "mapX": 318.14,
        "mapY": 492.92,
        "s3mX": -1121.584,
        "s3mY": -166.886,
        "longitude": 118.78337143,
        "latitude": 32.03557204
      },
      "geometry": {
        "type": "Polygon",
        "coordinates": [
          [
            [
              274.72,
              459.04
            ],
            [
              361.56,
              459.04
            ],
            [
              361.56,
              526.8
            ],
            [
              274.72,
              526.8
            ],
            [
              274.72,
              459.04
            ]
          ]
        ]
      }
    },
    {
      "type": "Feature",
      "properties": {
        "dataset": "park_building_footprint",
        "building_id": "BLD_I_002",
        "name": "西南泵区",
        "zone_code": "I",
        "source_facility_id": "pa-west-south",
        "source_facility_name": "西南储罐与泵区",
        "type": "pump",
        "is_hazard": 1,
        "personnel": 4,
        "confidence": "low",
        "status": "pending",
        "source": "s3m_oblique_manual_interpretation_draft",
        "precisionLevel": "building_footprint_draft",
        "needsDesktopRefinement": true,
        "remark": "基于三维斜视图和设施区底稿自动切分的建筑单体草稿，需在 iDesktopX 中对照三维瓦片最终校核。",
        "mapX": 428.36,
        "mapY": 494.13,
        "s3mX": -953.787,
        "s3mY": -169.451,
        "longitude": 118.78453947,
        "latitude": 32.03556117
      },
      "geometry": {
        "type": "Polygon",
        "coordinates": [
          [
            [
              381.6,
              466.3
            ],
            [
              475.12,
              466.3
            ],
            [
              475.12,
              521.96
            ],
            [
              381.6,
              521.96
            ],
            [
              381.6,
              466.3
            ]
          ]
        ]
      }
    },
    {
      "type": "Feature",
      "properties": {
        "dataset": "park_building_footprint",
        "building_id": "BLD_I_003",
        "name": "西南辅助厂房",
        "zone_code": "I",
        "source_facility_id": "pa-west-south",
        "source_facility_name": "西南储罐与泵区",
        "type": "utility",
        "is_hazard": 0,
        "personnel": 8,
        "confidence": "medium",
        "status": "pending",
        "source": "s3m_oblique_manual_interpretation_draft",
        "precisionLevel": "building_footprint_draft",
        "needsDesktopRefinement": true,
        "remark": "基于三维斜视图和设施区底稿自动切分的建筑单体草稿，需在 iDesktopX 中对照三维瓦片最终校核。",
        "mapX": 361.56,
        "mapY": 604.24,
        "s3mX": -1055.482,
        "s3mY": -402.928,
        "longitude": 118.78383157,
        "latitude": 32.03457204
      },
      "geometry": {
        "type": "Polygon",
        "coordinates": [
          [
            [
              294.76,
              570.36
            ],
            [
              428.36,
              570.36
            ],
            [
              428.36,
              638.12
            ],
            [
              294.76,
              638.12
            ],
            [
              294.76,
              570.36
            ]
          ]
        ]
      }
    },
    {
      "type": "Feature",
      "properties": {
        "dataset": "park_building_footprint",
        "building_id": "BLD_B_001",
        "name": "西中长条生产厂房",
        "zone_code": "B",
        "source_facility_id": "pa-center-north",
        "source_facility_name": "中北厂房装置区",
        "type": "production",
        "is_hazard": 1,
        "personnel": 36,
        "confidence": "high",
        "status": "confirmed",
        "source": "s3m_oblique_manual_interpretation_draft",
        "precisionLevel": "building_footprint_draft",
        "needsDesktopRefinement": false,
        "remark": "基于三维斜视图和设施区底稿自动切分的建筑单体草稿，需在 iDesktopX 中对照三维瓦片最终校核。",
        "mapX": 672,
        "mapY": 299.52,
        "s3mX": -582.872,
        "s3mY": 243.199,
        "longitude": 118.7871214,
        "latitude": 32.03730938
      },
      "geometry": {
        "type": "Polygon",
        "coordinates": [
          [
            [
              604.8,
              273.12
            ],
            [
              739.2,
              273.12
            ],
            [
              739.2,
              325.92
            ],
            [
              604.8,
              325.92
            ],
            [
              604.8,
              273.12
            ]
          ]
        ]
      }
    },
    {
      "type": "Feature",
      "properties": {
        "dataset": "park_building_footprint",
        "building_id": "BLD_B_002",
        "name": "西中装置区",
        "zone_code": "B",
        "source_facility_id": "pa-center-north",
        "source_facility_name": "中北厂房装置区",
        "type": "production",
        "is_hazard": 1,
        "personnel": 10,
        "confidence": "medium",
        "status": "pending",
        "source": "s3m_oblique_manual_interpretation_draft",
        "precisionLevel": "building_footprint_draft",
        "needsDesktopRefinement": true,
        "remark": "基于三维斜视图和设施区底稿自动切分的建筑单体草稿，需在 iDesktopX 中对照三维瓦片最终校核。",
        "mapX": 668.64,
        "mapY": 376.96,
        "s3mX": -587.988,
        "s3mY": 78.996,
        "longitude": 118.78708579,
        "latitude": 32.03661373
      },
      "geometry": {
        "type": "Polygon",
        "coordinates": [
          [
            [
              611.52,
              350.56
            ],
            [
              725.76,
              350.56
            ],
            [
              725.76,
              403.36
            ],
            [
              611.52,
              403.36
            ],
            [
              611.52,
              350.56
            ]
          ]
        ]
      }
    },
    {
      "type": "Feature",
      "properties": {
        "dataset": "park_building_footprint",
        "building_id": "BLD_D_001",
        "name": "中南蓝顶厂房",
        "zone_code": "D",
        "source_facility_id": "pa-center-south",
        "source_facility_name": "中南反应装置区",
        "type": "production",
        "is_hazard": 1,
        "personnel": 24,
        "confidence": "high",
        "status": "confirmed",
        "source": "s3m_oblique_manual_interpretation_draft",
        "precisionLevel": "building_footprint_draft",
        "needsDesktopRefinement": false,
        "remark": "基于三维斜视图和设施区底稿自动切分的建筑单体草稿，需在 iDesktopX 中对照三维瓦片最终校核。",
        "mapX": 668.64,
        "mapY": 488.08,
        "s3mX": -587.988,
        "s3mY": -156.623,
        "longitude": 118.78708579,
        "latitude": 32.03561552
      },
      "geometry": {
        "type": "Polygon",
        "coordinates": [
          [
            [
              601.44,
              459.04
            ],
            [
              735.84,
              459.04
            ],
            [
              735.84,
              517.12
            ],
            [
              601.44,
              517.12
            ],
            [
              601.44,
              459.04
            ]
          ]
        ]
      }
    },
    {
      "type": "Feature",
      "properties": {
        "dataset": "park_building_footprint",
        "building_id": "BLD_D_002",
        "name": "中南罐组",
        "zone_code": "D",
        "source_facility_id": "pa-center-south",
        "source_facility_name": "中南反应装置区",
        "type": "tank",
        "is_hazard": 1,
        "personnel": 4,
        "confidence": "medium",
        "status": "pending",
        "source": "s3m_oblique_manual_interpretation_draft",
        "precisionLevel": "building_footprint_draft",
        "needsDesktopRefinement": true,
        "remark": "基于三维斜视图和设施区底稿自动切分的建筑单体草稿，需在 iDesktopX 中对照三维瓦片最终校核。",
        "mapX": 636.72,
        "mapY": 587.3,
        "s3mX": -636.582,
        "s3mY": -367.009,
        "longitude": 118.78674752,
        "latitude": 32.03472422
      },
      "geometry": {
        "type": "Polygon",
        "coordinates": [
          [
            [
              608.16,
              551
            ],
            [
              665.28,
              551
            ],
            [
              665.28,
              623.6
            ],
            [
              608.16,
              623.6
            ],
            [
              608.16,
              551
            ]
          ]
        ]
      }
    },
    {
      "type": "Feature",
      "properties": {
        "dataset": "park_building_footprint",
        "building_id": "BLD_D_003",
        "name": "中南装置框架",
        "zone_code": "D",
        "source_facility_id": "pa-center-south",
        "source_facility_name": "中南反应装置区",
        "type": "production",
        "is_hazard": 1,
        "personnel": 6,
        "confidence": "low",
        "status": "pending",
        "source": "s3m_oblique_manual_interpretation_draft",
        "precisionLevel": "building_footprint_draft",
        "needsDesktopRefinement": true,
        "remark": "基于三维斜视图和设施区底稿自动切分的建筑单体草稿，需在 iDesktopX 中对照三维瓦片最终校核。",
        "mapX": 707.28,
        "mapY": 589.72,
        "s3mX": -529.163,
        "s3mY": -372.14,
        "longitude": 118.78749527,
        "latitude": 32.03470248
      },
      "geometry": {
        "type": "Polygon",
        "coordinates": [
          [
            [
              678.72,
              551
            ],
            [
              735.84,
              551
            ],
            [
              735.84,
              628.44
            ],
            [
              678.72,
              628.44
            ],
            [
              678.72,
              551
            ]
          ]
        ]
      }
    },
    {
      "type": "Feature",
      "properties": {
        "dataset": "park_building_footprint",
        "building_id": "BLD_C_001",
        "name": "中央主厂房",
        "zone_code": "C",
        "source_facility_id": "ut-center",
        "source_facility_name": "公用工程与管廊区",
        "type": "production",
        "is_hazard": 1,
        "personnel": 28,
        "confidence": "high",
        "status": "confirmed",
        "source": "s3m_oblique_manual_interpretation_draft",
        "precisionLevel": "building_footprint_draft",
        "needsDesktopRefinement": false,
        "remark": "基于三维斜视图和设施区底稿自动切分的建筑单体草稿，需在 iDesktopX 中对照三维瓦片最终校核。",
        "mapX": 802.24,
        "mapY": 365.4,
        "s3mX": -384.597,
        "s3mY": 103.507,
        "longitude": 118.78850159,
        "latitude": 32.03671757
      },
      "geometry": {
        "type": "Polygon",
        "coordinates": [
          [
            [
              767.04,
              327.6
            ],
            [
              837.44,
              327.6
            ],
            [
              837.44,
              403.2
            ],
            [
              767.04,
              403.2
            ],
            [
              767.04,
              327.6
            ]
          ]
        ]
      }
    },
    {
      "type": "Feature",
      "properties": {
        "dataset": "park_building_footprint",
        "building_id": "BLD_C_002",
        "name": "中央塔器区",
        "zone_code": "C",
        "source_facility_id": "ut-center",
        "source_facility_name": "公用工程与管廊区",
        "type": "tower",
        "is_hazard": 1,
        "personnel": 4,
        "confidence": "medium",
        "status": "pending",
        "source": "s3m_oblique_manual_interpretation_draft",
        "precisionLevel": "building_footprint_draft",
        "needsDesktopRefinement": true,
        "remark": "基于三维斜视图和设施区底稿自动切分的建筑单体草稿，需在 iDesktopX 中对照三维瓦片最终校核。",
        "mapX": 802.24,
        "mapY": 478.8,
        "s3mX": -384.597,
        "s3mY": -136.946,
        "longitude": 118.78850159,
        "latitude": 32.03569889
      },
      "geometry": {
        "type": "Polygon",
        "coordinates": [
          [
            [
              777.6,
              436.8
            ],
            [
              826.88,
              436.8
            ],
            [
              826.88,
              520.8
            ],
            [
              777.6,
              520.8
            ],
            [
              777.6,
              436.8
            ]
          ]
        ]
      }
    },
    {
      "type": "Feature",
      "properties": {
        "dataset": "park_building_footprint",
        "building_id": "BLD_C_003",
        "name": "中央公用工程区",
        "zone_code": "C",
        "source_facility_id": "ut-center",
        "source_facility_name": "公用工程与管廊区",
        "type": "utility",
        "is_hazard": 0,
        "personnel": 6,
        "confidence": "medium",
        "status": "pending",
        "source": "s3m_oblique_manual_interpretation_draft",
        "precisionLevel": "building_footprint_draft",
        "needsDesktopRefinement": true,
        "remark": "基于三维斜视图和设施区底稿自动切分的建筑单体草稿，需在 iDesktopX 中对照三维瓦片最终校核。",
        "mapX": 804,
        "mapY": 592.2,
        "s3mX": -381.917,
        "s3mY": -377.399,
        "longitude": 118.78852024,
        "latitude": 32.0346802
      },
      "geometry": {
        "type": "Polygon",
        "coordinates": [
          [
            [
              775.84,
              554.4
            ],
            [
              832.16,
              554.4
            ],
            [
              832.16,
              630
            ],
            [
              775.84,
              630
            ],
            [
              775.84,
              554.4
            ]
          ]
        ]
      }
    },
    {
      "type": "Feature",
      "properties": {
        "dataset": "park_building_footprint",
        "building_id": "BLD_E_001",
        "name": "中东装置框架区",
        "zone_code": "E",
        "source_facility_id": "tw-center",
        "source_facility_name": "中东塔器与罐组区",
        "type": "production",
        "is_hazard": 1,
        "personnel": 14,
        "confidence": "medium",
        "status": "pending",
        "source": "s3m_oblique_manual_interpretation_draft",
        "precisionLevel": "building_footprint_draft",
        "needsDesktopRefinement": true,
        "remark": "基于三维斜视图和设施区底稿自动切分的建筑单体草稿，需在 iDesktopX 中对照三维瓦片最终校核。",
        "mapX": 901,
        "mapY": 336,
        "s3mX": -234.246,
        "s3mY": 165.847,
        "longitude": 118.78954818,
        "latitude": 32.03698167
      },
      "geometry": {
        "type": "Polygon",
        "coordinates": [
          [
            [
              865,
              294
            ],
            [
              937,
              294
            ],
            [
              937,
              378
            ],
            [
              865,
              378
            ],
            [
              865,
              294
            ]
          ]
        ]
      }
    },
    {
      "type": "Feature",
      "properties": {
        "dataset": "park_building_footprint",
        "building_id": "BLD_E_002",
        "name": "中东塔器罐组",
        "zone_code": "E",
        "source_facility_id": "tw-center",
        "source_facility_name": "中东塔器与罐组区",
        "type": "tank",
        "is_hazard": 1,
        "personnel": 4,
        "confidence": "medium",
        "status": "pending",
        "source": "s3m_oblique_manual_interpretation_draft",
        "precisionLevel": "building_footprint_draft",
        "needsDesktopRefinement": true,
        "remark": "基于三维斜视图和设施区底稿自动切分的建筑单体草稿，需在 iDesktopX 中对照三维瓦片最终校核。",
        "mapX": 901,
        "mapY": 453.6,
        "s3mX": -234.246,
        "s3mY": -83.512,
        "longitude": 118.78954818,
        "latitude": 32.03592526
      },
      "geometry": {
        "type": "Polygon",
        "coordinates": [
          [
            [
              868.6,
              411.6
            ],
            [
              933.4,
              411.6
            ],
            [
              933.4,
              495.6
            ],
            [
              868.6,
              495.6
            ],
            [
              868.6,
              411.6
            ]
          ]
        ]
      }
    },
    {
      "type": "Feature",
      "properties": {
        "dataset": "park_building_footprint",
        "building_id": "BLD_E_003",
        "name": "中东南侧厂房",
        "zone_code": "E",
        "source_facility_id": "tw-center",
        "source_facility_name": "中东塔器与罐组区",
        "type": "production",
        "is_hazard": 1,
        "personnel": 16,
        "confidence": "medium",
        "status": "pending",
        "source": "s3m_oblique_manual_interpretation_draft",
        "precisionLevel": "building_footprint_draft",
        "needsDesktopRefinement": true,
        "remark": "基于三维斜视图和设施区底稿自动切分的建筑单体草稿，需在 iDesktopX 中对照三维瓦片最终校核。",
        "mapX": 901,
        "mapY": 579.6,
        "s3mX": -234.246,
        "s3mY": -350.682,
        "longitude": 118.78954818,
        "latitude": 32.03479339
      },
      "geometry": {
        "type": "Polygon",
        "coordinates": [
          [
            [
              865,
              537.6
            ],
            [
              937,
              537.6
            ],
            [
              937,
              621.6
            ],
            [
              865,
              621.6
            ],
            [
              865,
              537.6
            ]
          ]
        ]
      }
    },
    {
      "type": "Feature",
      "properties": {
        "dataset": "park_building_footprint",
        "building_id": "BLD_G_001",
        "name": "东北西侧储罐组",
        "zone_code": "G",
        "source_facility_id": "pb-north-tank",
        "source_facility_name": "东北罐组与管汇区",
        "type": "tank",
        "is_hazard": 1,
        "personnel": 2,
        "confidence": "high",
        "status": "confirmed",
        "source": "s3m_oblique_manual_interpretation_draft",
        "precisionLevel": "building_footprint_draft",
        "needsDesktopRefinement": false,
        "remark": "基于三维斜视图和设施区底稿自动切分的建筑单体草稿，需在 iDesktopX 中对照三维瓦片最终校核。",
        "mapX": 1015.8,
        "mapY": 318.3,
        "s3mX": -59.476,
        "s3mY": 203.378,
        "longitude": 118.79076475,
        "latitude": 32.03714068
      },
      "geometry": {
        "type": "Polygon",
        "coordinates": [
          [
            [
              976.8,
              279.2
            ],
            [
              1054.8,
              279.2
            ],
            [
              1054.8,
              357.4
            ],
            [
              976.8,
              357.4
            ],
            [
              976.8,
              279.2
            ]
          ]
        ]
      }
    },
    {
      "type": "Feature",
      "properties": {
        "dataset": "park_building_footprint",
        "building_id": "BLD_G_002",
        "name": "东北东侧储罐组",
        "zone_code": "G",
        "source_facility_id": "pb-north-tank",
        "source_facility_name": "东北罐组与管汇区",
        "type": "tank",
        "is_hazard": 1,
        "personnel": 2,
        "confidence": "high",
        "status": "confirmed",
        "source": "s3m_oblique_manual_interpretation_draft",
        "precisionLevel": "building_footprint_draft",
        "needsDesktopRefinement": false,
        "remark": "基于三维斜视图和设施区底稿自动切分的建筑单体草稿，需在 iDesktopX 中对照三维瓦片最终校核。",
        "mapX": 1135.4,
        "mapY": 318.3,
        "s3mX": 122.602,
        "s3mY": 203.378,
        "longitude": 118.79203219,
        "latitude": 32.03714068
      },
      "geometry": {
        "type": "Polygon",
        "coordinates": [
          [
            [
              1091.2,
              279.2
            ],
            [
              1179.6,
              279.2
            ],
            [
              1179.6,
              357.4
            ],
            [
              1091.2,
              357.4
            ],
            [
              1091.2,
              279.2
            ]
          ]
        ]
      }
    },
    {
      "type": "Feature",
      "properties": {
        "dataset": "park_building_footprint",
        "building_id": "BLD_G_003",
        "name": "东北管汇装卸区",
        "zone_code": "G",
        "source_facility_id": "pb-north-tank",
        "source_facility_name": "东北罐组与管汇区",
        "type": "utility",
        "is_hazard": 1,
        "personnel": 4,
        "confidence": "medium",
        "status": "pending",
        "source": "s3m_oblique_manual_interpretation_draft",
        "precisionLevel": "building_footprint_draft",
        "needsDesktopRefinement": true,
        "remark": "基于三维斜视图和设施区底稿自动切分的建筑单体草稿，需在 iDesktopX 中对照三维瓦片最终校核。",
        "mapX": 1086,
        "mapY": 386.3,
        "s3mX": 47.396,
        "s3mY": 59.191,
        "longitude": 118.79150869,
        "latitude": 32.03652982
      },
      "geometry": {
        "type": "Polygon",
        "coordinates": [
          [
            [
              1002.8,
              371
            ],
            [
              1169.2,
              371
            ],
            [
              1169.2,
              401.6
            ],
            [
              1002.8,
              401.6
            ],
            [
              1002.8,
              371
            ]
          ]
        ]
      }
    },
    {
      "type": "Feature",
      "properties": {
        "dataset": "park_building_footprint",
        "building_id": "BLD_F_001",
        "name": "东南主生产厂房",
        "zone_code": "F",
        "source_facility_id": "pb-mid-process",
        "source_facility_name": "东中生产与污水装置区",
        "type": "production",
        "is_hazard": 1,
        "personnel": 28,
        "confidence": "high",
        "status": "confirmed",
        "source": "s3m_oblique_manual_interpretation_draft",
        "precisionLevel": "building_footprint_draft",
        "needsDesktopRefinement": false,
        "remark": "基于三维斜视图和设施区底稿自动切分的建筑单体草稿，需在 iDesktopX 中对照三维瓦片最终校核。",
        "mapX": 1086,
        "mapY": 452.48,
        "s3mX": 47.396,
        "s3mY": -81.137,
        "longitude": 118.79150869,
        "latitude": 32.03593532
      },
      "geometry": {
        "type": "Polygon",
        "coordinates": [
          [
            [
              976.8,
              436.24
            ],
            [
              1195.2,
              436.24
            ],
            [
              1195.2,
              468.72
            ],
            [
              976.8,
              468.72
            ],
            [
              976.8,
              436.24
            ]
          ]
        ]
      }
    },
    {
      "type": "Feature",
      "properties": {
        "dataset": "park_building_footprint",
        "building_id": "BLD_F_002",
        "name": "东南设备区",
        "zone_code": "F",
        "source_facility_id": "pb-mid-process",
        "source_facility_name": "东中生产与污水装置区",
        "type": "utility",
        "is_hazard": 1,
        "personnel": 8,
        "confidence": "medium",
        "status": "pending",
        "source": "s3m_oblique_manual_interpretation_draft",
        "precisionLevel": "building_footprint_draft",
        "needsDesktopRefinement": true,
        "remark": "基于三维斜视图和设施区底稿自动切分的建筑单体草稿，需在 iDesktopX 中对照三维瓦片最终校核。",
        "mapX": 1034,
        "mapY": 501.2,
        "s3mX": -31.768,
        "s3mY": -184.443,
        "longitude": 118.79095763,
        "latitude": 32.03549766
      },
      "geometry": {
        "type": "Polygon",
        "coordinates": [
          [
            [
              987.2,
              484.96
            ],
            [
              1080.8,
              484.96
            ],
            [
              1080.8,
              517.44
            ],
            [
              987.2,
              517.44
            ],
            [
              987.2,
              484.96
            ]
          ]
        ]
      }
    },
    {
      "type": "Feature",
      "properties": {
        "dataset": "park_building_footprint",
        "building_id": "BLD_F_003",
        "name": "东南辅助厂房",
        "zone_code": "F",
        "source_facility_id": "pb-mid-process",
        "source_facility_name": "东中生产与污水装置区",
        "type": "warehouse",
        "is_hazard": 0,
        "personnel": 16,
        "confidence": "medium",
        "status": "pending",
        "source": "s3m_oblique_manual_interpretation_draft",
        "precisionLevel": "building_footprint_draft",
        "needsDesktopRefinement": true,
        "remark": "基于三维斜视图和设施区底稿自动切分的建筑单体草稿，需在 iDesktopX 中对照三维瓦片最终校核。",
        "mapX": 1148.4,
        "mapY": 501.2,
        "s3mX": 142.393,
        "s3mY": -184.443,
        "longitude": 118.79216996,
        "latitude": 32.03549766
      },
      "geometry": {
        "type": "Polygon",
        "coordinates": [
          [
            [
              1106.8,
              484.96
            ],
            [
              1190,
              484.96
            ],
            [
              1190,
              517.44
            ],
            [
              1106.8,
              517.44
            ],
            [
              1106.8,
              484.96
            ]
          ]
        ]
      }
    },
    {
      "type": "Feature",
      "properties": {
        "dataset": "park_building_footprint",
        "building_id": "BLD_J_001",
        "name": "南侧小罐组",
        "zone_code": "J",
        "source_facility_id": "fs-east-yard",
        "source_facility_name": "东侧应急与装卸边界区",
        "type": "tank",
        "is_hazard": 1,
        "personnel": 2,
        "confidence": "medium",
        "status": "pending",
        "source": "s3m_oblique_manual_interpretation_draft",
        "precisionLevel": "building_footprint_draft",
        "needsDesktopRefinement": true,
        "remark": "基于三维斜视图和设施区底稿自动切分的建筑单体草稿，需在 iDesktopX 中对照三维瓦片最终校核。",
        "mapX": 1030,
        "mapY": 571.28,
        "s3mX": -37.858,
        "s3mY": -333.04,
        "longitude": 118.79091524,
        "latitude": 32.03486813
      },
      "geometry": {
        "type": "Polygon",
        "coordinates": [
          [
            [
              995.04,
              553.64
            ],
            [
              1064.96,
              553.64
            ],
            [
              1064.96,
              588.92
            ],
            [
              995.04,
              588.92
            ],
            [
              995.04,
              553.64
            ]
          ]
        ]
      }
    },
    {
      "type": "Feature",
      "properties": {
        "dataset": "park_building_footprint",
        "building_id": "BLD_J_002",
        "name": "南侧装置区",
        "zone_code": "J",
        "source_facility_id": "fs-east-yard",
        "source_facility_name": "东侧应急与装卸边界区",
        "type": "production",
        "is_hazard": 1,
        "personnel": 8,
        "confidence": "low",
        "status": "pending",
        "source": "s3m_oblique_manual_interpretation_draft",
        "precisionLevel": "building_footprint_draft",
        "needsDesktopRefinement": true,
        "remark": "基于三维斜视图和设施区底稿自动切分的建筑单体草稿，需在 iDesktopX 中对照三维瓦片最终校核。",
        "mapX": 1030,
        "mapY": 625.46,
        "s3mX": -37.858,
        "s3mY": -447.923,
        "longitude": 118.79091524,
        "latitude": 32.03438142
      },
      "geometry": {
        "type": "Polygon",
        "coordinates": [
          [
            [
              998.72,
              609.08
            ],
            [
              1061.28,
              609.08
            ],
            [
              1061.28,
              641.84
            ],
            [
              998.72,
              641.84
            ],
            [
              998.72,
              609.08
            ]
          ]
        ]
      }
    },
    {
      "type": "Feature",
      "properties": {
        "dataset": "park_building_footprint",
        "building_id": "BLD_H_001",
        "name": "东侧仓储建筑一",
        "zone_code": "H",
        "source_facility_id": "wh-logistics",
        "source_facility_name": "东南仓储物流区",
        "type": "warehouse",
        "is_hazard": 0,
        "personnel": 24,
        "confidence": "high",
        "status": "confirmed",
        "source": "s3m_oblique_manual_interpretation_draft",
        "precisionLevel": "building_footprint_draft",
        "needsDesktopRefinement": false,
        "remark": "基于三维斜视图和设施区底稿自动切分的建筑单体草稿，需在 iDesktopX 中对照三维瓦片最终校核。",
        "mapX": 1112.4,
        "mapY": 562.46,
        "s3mX": 87.587,
        "s3mY": -314.338,
        "longitude": 118.79178846,
        "latitude": 32.03494736
      },
      "geometry": {
        "type": "Polygon",
        "coordinates": [
          [
            [
              1090,
              548.6
            ],
            [
              1134.8,
              548.6
            ],
            [
              1134.8,
              576.32
            ],
            [
              1090,
              576.32
            ],
            [
              1090,
              548.6
            ]
          ]
        ]
      }
    },
    {
      "type": "Feature",
      "properties": {
        "dataset": "park_building_footprint",
        "building_id": "BLD_H_002",
        "name": "东侧仓储建筑二",
        "zone_code": "H",
        "source_facility_id": "wh-logistics",
        "source_facility_name": "东南仓储物流区",
        "type": "warehouse",
        "is_hazard": 0,
        "personnel": 18,
        "confidence": "high",
        "status": "confirmed",
        "source": "s3m_oblique_manual_interpretation_draft",
        "precisionLevel": "building_footprint_draft",
        "needsDesktopRefinement": false,
        "remark": "基于三维斜视图和设施区底稿自动切分的建筑单体草稿，需在 iDesktopX 中对照三维瓦片最终校核。",
        "mapX": 1179.6,
        "mapY": 562.46,
        "s3mX": 189.891,
        "s3mY": -314.338,
        "longitude": 118.7925006,
        "latitude": 32.03494736
      },
      "geometry": {
        "type": "Polygon",
        "coordinates": [
          [
            [
              1157.2,
              548.6
            ],
            [
              1202,
              548.6
            ],
            [
              1202,
              576.32
            ],
            [
              1157.2,
              576.32
            ],
            [
              1157.2,
              548.6
            ]
          ]
        ]
      }
    },
    {
      "type": "Feature",
      "properties": {
        "dataset": "park_building_footprint",
        "building_id": "BLD_H_003",
        "name": "东侧辅助建筑一",
        "zone_code": "H",
        "source_facility_id": "wh-logistics",
        "source_facility_name": "东南仓储物流区",
        "type": "office",
        "is_hazard": 0,
        "personnel": 20,
        "confidence": "medium",
        "status": "pending",
        "source": "s3m_oblique_manual_interpretation_draft",
        "precisionLevel": "building_footprint_draft",
        "needsDesktopRefinement": true,
        "remark": "基于三维斜视图和设施区底稿自动切分的建筑单体草稿，需在 iDesktopX 中对照三维瓦片最终校核。",
        "mapX": 1112.4,
        "mapY": 616.64,
        "s3mX": 87.587,
        "s3mY": -429.221,
        "longitude": 118.79178846,
        "latitude": 32.03446065
      },
      "geometry": {
        "type": "Polygon",
        "coordinates": [
          [
            [
              1090,
              601.52
            ],
            [
              1134.8,
              601.52
            ],
            [
              1134.8,
              631.76
            ],
            [
              1090,
              631.76
            ],
            [
              1090,
              601.52
            ]
          ]
        ]
      }
    },
    {
      "type": "Feature",
      "properties": {
        "dataset": "park_building_footprint",
        "building_id": "BLD_H_004",
        "name": "东侧辅助建筑二",
        "zone_code": "H",
        "source_facility_id": "wh-logistics",
        "source_facility_name": "东南仓储物流区",
        "type": "utility",
        "is_hazard": 0,
        "personnel": 12,
        "confidence": "medium",
        "status": "pending",
        "source": "s3m_oblique_manual_interpretation_draft",
        "precisionLevel": "building_footprint_draft",
        "needsDesktopRefinement": true,
        "remark": "基于三维斜视图和设施区底稿自动切分的建筑单体草稿，需在 iDesktopX 中对照三维瓦片最终校核。",
        "mapX": 1179.6,
        "mapY": 616.64,
        "s3mX": 189.891,
        "s3mY": -429.221,
        "longitude": 118.7925006,
        "latitude": 32.03446065
      },
      "geometry": {
        "type": "Polygon",
        "coordinates": [
          [
            [
              1157.2,
              601.52
            ],
            [
              1202,
              601.52
            ],
            [
              1202,
              631.76
            ],
            [
              1157.2,
              631.76
            ],
            [
              1157.2,
              601.52
            ]
          ]
        ]
      }
    }
  ]
}
