{
  "type": "FeatureCollection",
  "name": "building_footprints_wgs84",
  "crs": {
    "type": "name",
    "properties": {
      "name": "wgs84-reference-from-business-transform"
    }
  },
  "features": [
    {
      "type": "Feature",
      "properties": {
        "dataset": "park_building_footprint",
        "building_id": "BLD_A_001",
        "name": "西部生产装置区蓝顶厂房",
        "zone_code": "A",
        "source_facility_id": "pa-west-north",
        "source_facility_name": "西北生产装置区",
        "type": "production",
        "is_hazard": 1,
        "personnel": 24,
        "confidence": "medium",
        "status": "pending",
        "source": "s3m_oblique_manual_interpretation_draft",
        "precisionLevel": "building_footprint_draft",
        "needsDesktopRefinement": true,
        "remark": "基于三维斜视图和设施区底稿自动切分的建筑单体草稿，需在 iDesktopX 中对照三维瓦片最终校核。",
        "mapX": 334.84,
        "mapY": 290.72,
        "s3mX": -1096.16,
        "s3mY": 261.858,
        "longitude": 118.78354841,
        "latitude": 32.03738843
      },
      "geometry": {
        "type": "Polygon",
        "coordinates": [
          [
            [
              118.7828405,
              32.03757815,
              30.935
            ],
            [
              118.78425631,
              32.03757815,
              28.898
            ],
            [
              118.78425631,
              32.03719871,
              28.657
            ],
            [
              118.7828405,
              32.03719871,
              30.694
            ],
            [
              118.7828405,
              32.03757815,
              30.935
            ]
          ]
        ]
      }
    },
    {
      "type": "Feature",
      "properties": {
        "dataset": "park_building_footprint",
        "building_id": "BLD_A_002",
        "name": "西部生产装置框架区",
        "zone_code": "A",
        "source_facility_id": "pa-west-north",
        "source_facility_name": "西北生产装置区",
        "type": "production",
        "is_hazard": 1,
        "personnel": 8,
        "confidence": "low",
        "status": "pending",
        "source": "s3m_oblique_manual_interpretation_draft",
        "precisionLevel": "building_footprint_draft",
        "needsDesktopRefinement": true,
        "remark": "基于三维斜视图和设施区底稿自动切分的建筑单体草稿，需在 iDesktopX 中对照三维瓦片最终校核。",
        "mapX": 481.8,
        "mapY": 292.48,
        "s3mX": -872.43,
        "s3mY": 258.127,
        "longitude": 118.78510579,
        "latitude": 32.03737262
      },
      "geometry": {
        "type": "Polygon",
        "coordinates": [
          [
            [
              118.78446868,
              32.03760977,
              28.875
            ],
            [
              118.7857429,
              32.03760977,
              30.208
            ],
            [
              118.7857429,
              32.03713547,
              29.913
            ],
            [
              118.78446868,
              32.03713547,
              28.579
            ],
            [
              118.78446868,
              32.03760977,
              28.875
            ]
          ]
        ]
      }
    },
    {
      "type": "Feature",
      "properties": {
        "dataset": "park_building_footprint",
        "building_id": "BLD_A_003",
        "name": "西部北侧辅助厂房",
        "zone_code": "A",
        "source_facility_id": "pa-west-north",
        "source_facility_name": "西北生产装置区",
        "type": "utility",
        "is_hazard": 0,
        "personnel": 4,
        "confidence": "low",
        "status": "pending",
        "source": "s3m_oblique_manual_interpretation_draft",
        "precisionLevel": "building_footprint_draft",
        "needsDesktopRefinement": true,
        "remark": "基于三维斜视图和设施区底稿自动切分的建筑单体草稿，需在 iDesktopX 中对照三维瓦片最终校核。",
        "mapX": 338.18,
        "mapY": 375.2,
        "s3mX": -1091.076,
        "s3mY": 82.727,
        "longitude": 118.7835838,
        "latitude": 32.03662954
      },
      "geometry": {
        "type": "Polygon",
        "coordinates": [
          [
            [
              118.78298208,
              32.03685088,
              30.309
            ],
            [
              118.78418552,
              32.03685088,
              28.576
            ],
            [
              118.78418552,
              32.03640819,
              28.25
            ],
            [
              118.78298208,
              32.03640819,
              29.984
            ],
            [
              118.78298208,
              32.03685088,
              30.309
            ]
          ]
        ]
      }
    },
    {
      "type": "Feature",
      "properties": {
        "dataset": "park_building_footprint",
        "building_id": "BLD_I_001",
        "name": "西南罐组一",
        "zone_code": "I",
        "source_facility_id": "pa-west-south",
        "source_facility_name": "西南储罐与泵区",
        "type": "tank",
        "is_hazard": 1,
        "personnel": 2,
        "confidence": "medium",
        "status": "pending",
        "source": "s3m_oblique_manual_interpretation_draft",
        "precisionLevel": "building_footprint_draft",
        "needsDesktopRefinement": true,
        "remark": "基于三维斜视图和设施区底稿自动切分的建筑单体草稿，需在 iDesktopX 中对照三维瓦片最终校核。",
        "mapX": 318.14,
        "mapY": 492.92,
        "s3mX": -1121.584,
        "s3mY": -166.886,
        "longitude": 118.78337143,
        "latitude": 32.03557204
      },
      "geometry": {
        "type": "Polygon",
        "coordinates": [
          [
            [
              118.78291129,
              32.03587639,
              29.079
            ],
            [
              118.78383157,
              32.03587639,
              27.536
            ],
            [
              118.78383157,
              32.0352677,
              25.412
            ],
            [
              118.78291129,
              32.0352677,
              26.955
            ],
            [
              118.78291129,
              32.03587639,
              29.079
            ]
          ]
        ]
      }
    },
    {
      "type": "Feature",
      "properties": {
        "dataset": "park_building_footprint",
        "building_id": "BLD_I_002",
        "name": "西南泵区",
        "zone_code": "I",
        "source_facility_id": "pa-west-south",
        "source_facility_name": "西南储罐与泵区",
        "type": "pump",
        "is_hazard": 1,
        "personnel": 4,
        "confidence": "low",
        "status": "pending",
        "source": "s3m_oblique_manual_interpretation_draft",
        "precisionLevel": "building_footprint_draft",
        "needsDesktopRefinement": true,
        "remark": "基于三维斜视图和设施区底稿自动切分的建筑单体草稿，需在 iDesktopX 中对照三维瓦片最终校核。",
        "mapX": 428.36,
        "mapY": 494.13,
        "s3mX": -953.787,
        "s3mY": -169.451,
        "longitude": 118.78453947,
        "latitude": 32.03556117
      },
      "geometry": {
        "type": "Polygon",
        "coordinates": [
          [
            [
              118.78404394,
              32.03581117,
              27.13
            ],
            [
              118.785035,
              32.03581117,
              27.215
            ],
            [
              118.785035,
              32.03531117,
              25.451
            ],
            [
              118.78404394,
              32.03531117,
              25.366
            ],
            [
              118.78404394,
              32.03581117,
              27.13
            ]
          ]
        ]
      }
    },
    {
      "type": "Feature",
      "properties": {
        "dataset": "park_building_footprint",
        "building_id": "BLD_I_003",
        "name": "西南辅助厂房",
        "zone_code": "I",
        "source_facility_id": "pa-west-south",
        "source_facility_name": "西南储罐与泵区",
        "type": "utility",
        "is_hazard": 0,
        "personnel": 8,
        "confidence": "medium",
        "status": "pending",
        "source": "s3m_oblique_manual_interpretation_draft",
        "precisionLevel": "building_footprint_draft",
        "needsDesktopRefinement": true,
        "remark": "基于三维斜视图和设施区底稿自动切分的建筑单体草稿，需在 iDesktopX 中对照三维瓦片最终校核。",
        "mapX": 361.56,
        "mapY": 604.24,
        "s3mX": -1055.482,
        "s3mY": -402.928,
        "longitude": 118.78383157,
        "latitude": 32.03457204
      },
      "geometry": {
        "type": "Polygon",
        "coordinates": [
          [
            [
              118.78312367,
              32.03487639,
              24.949
            ],
            [
              118.78453947,
              32.03487639,
              23.391
            ],
            [
              118.78453947,
              32.0342677,
              21.24
            ],
            [
              118.78312367,
              32.0342677,
              22.799
            ],
            [
              118.78312367,
              32.03487639,
              24.949
            ]
          ]
        ]
      }
    },
    {
      "type": "Feature",
      "properties": {
        "dataset": "park_building_footprint",
        "building_id": "BLD_B_001",
        "name": "西中长条生产厂房",
        "zone_code": "B",
        "source_facility_id": "pa-center-north",
        "source_facility_name": "中北厂房装置区",
        "type": "production",
        "is_hazard": 1,
        "personnel": 36,
        "confidence": "high",
        "status": "confirmed",
        "source": "s3m_oblique_manual_interpretation_draft",
        "precisionLevel": "building_footprint_draft",
        "needsDesktopRefinement": false,
        "remark": "基于三维斜视图和设施区底稿自动切分的建筑单体草稿，需在 iDesktopX 中对照三维瓦片最终校核。",
        "mapX": 672,
        "mapY": 299.52,
        "s3mX": -582.872,
        "s3mY": 243.199,
        "longitude": 118.7871214,
        "latitude": 32.03730938
      },
      "geometry": {
        "type": "Polygon",
        "coordinates": [
          [
            [
              118.78640926,
              32.03754653,
              31.373
            ],
            [
              118.78783354,
              32.03754653,
              32.297
            ],
            [
              118.78783354,
              32.03707222,
              32.043
            ],
            [
              118.78640926,
              32.03707222,
              31.119
            ],
            [
              118.78640926,
              32.03754653,
              31.373
            ]
          ]
        ]
      }
    },
    {
      "type": "Feature",
      "properties": {
        "dataset": "park_building_footprint",
        "building_id": "BLD_B_002",
        "name": "西中装置区",
        "zone_code": "B",
        "source_facility_id": "pa-center-north",
        "source_facility_name": "中北厂房装置区",
        "type": "production",
        "is_hazard": 1,
        "personnel": 10,
        "confidence": "medium",
        "status": "pending",
        "source": "s3m_oblique_manual_interpretation_draft",
        "precisionLevel": "building_footprint_draft",
        "needsDesktopRefinement": true,
        "remark": "基于三维斜视图和设施区底稿自动切分的建筑单体草稿，需在 iDesktopX 中对照三维瓦片最终校核。",
        "mapX": 668.64,
        "mapY": 376.96,
        "s3mX": -587.988,
        "s3mY": 78.996,
        "longitude": 118.78708579,
        "latitude": 32.03661373
      },
      "geometry": {
        "type": "Polygon",
        "coordinates": [
          [
            [
              118.78648047,
              32.03685088,
              31.163
            ],
            [
              118.78769111,
              32.03685088,
              32.043
            ],
            [
              118.78769111,
              32.03637657,
              31.678
            ],
            [
              118.78648047,
              32.03637657,
              30.799
            ],
            [
              118.78648047,
              32.03685088,
              31.163
            ]
          ]
        ]
      }
    },
    {
      "type": "Feature",
      "properties": {
        "dataset": "park_building_footprint",
        "building_id": "BLD_D_001",
        "name": "中南蓝顶厂房",
        "zone_code": "D",
        "source_facility_id": "pa-center-south",
        "source_facility_name": "中南反应装置区",
        "type": "production",
        "is_hazard": 1,
        "personnel": 24,
        "confidence": "high",
        "status": "confirmed",
        "source": "s3m_oblique_manual_interpretation_draft",
        "precisionLevel": "building_footprint_draft",
        "needsDesktopRefinement": false,
        "remark": "基于三维斜视图和设施区底稿自动切分的建筑单体草稿，需在 iDesktopX 中对照三维瓦片最终校核。",
        "mapX": 668.64,
        "mapY": 488.08,
        "s3mX": -587.988,
        "s3mY": -156.623,
        "longitude": 118.78708579,
        "latitude": 32.03561552
      },
      "geometry": {
        "type": "Polygon",
        "coordinates": [
          [
            [
              118.78637365,
              32.03587639,
              29.618
            ],
            [
              118.78779793,
              32.03587639,
              30.626
            ],
            [
              118.78779793,
              32.03535465,
              28.849
            ],
            [
              118.78637365,
              32.03535465,
              27.841
            ],
            [
              118.78637365,
              32.03587639,
              29.618
            ]
          ]
        ]
      }
    },
    {
      "type": "Feature",
      "properties": {
        "dataset": "park_building_footprint",
        "building_id": "BLD_D_002",
        "name": "中南罐组",
        "zone_code": "D",
        "source_facility_id": "pa-center-south",
        "source_facility_name": "中南反应装置区",
        "type": "tank",
        "is_hazard": 1,
        "personnel": 4,
        "confidence": "medium",
        "status": "pending",
        "source": "s3m_oblique_manual_interpretation_draft",
        "precisionLevel": "building_footprint_draft",
        "needsDesktopRefinement": true,
        "remark": "基于三维斜视图和设施区底稿自动切分的建筑单体草稿，需在 iDesktopX 中对照三维瓦片最终校核。",
        "mapX": 636.72,
        "mapY": 587.3,
        "s3mX": -636.582,
        "s3mY": -367.009,
        "longitude": 118.78674752,
        "latitude": 32.03472422
      },
      "geometry": {
        "type": "Polygon",
        "coordinates": [
          [
            [
              118.78644486,
              32.03505031,
              26.725
            ],
            [
              118.78705018,
              32.03505031,
              27.514
            ],
            [
              118.78705018,
              32.03439813,
              25.04
            ],
            [
              118.78644486,
              32.03439813,
              24.25
            ],
            [
              118.78644486,
              32.03505031,
              26.725
            ]
          ]
        ]
      }
    },
    {
      "type": "Feature",
      "properties": {
        "dataset": "park_building_footprint",
        "building_id": "BLD_D_003",
        "name": "中南装置框架",
        "zone_code": "D",
        "source_facility_id": "pa-center-south",
        "source_facility_name": "中南反应装置区",
        "type": "production",
        "is_hazard": 1,
        "personnel": 6,
        "confidence": "low",
        "status": "pending",
        "source": "s3m_oblique_manual_interpretation_draft",
        "precisionLevel": "building_footprint_draft",
        "needsDesktopRefinement": true,
        "remark": "基于三维斜视图和设施区底稿自动切分的建筑单体草稿，需在 iDesktopX 中对照三维瓦片最终校核。",
        "mapX": 707.28,
        "mapY": 589.72,
        "s3mX": -529.163,
        "s3mY": -372.14,
        "longitude": 118.78749527,
        "latitude": 32.03470248
      },
      "geometry": {
        "type": "Polygon",
        "coordinates": [
          [
            [
              118.78719261,
              32.03505031,
              27.616
            ],
            [
              118.78779793,
              32.03505031,
              27.611
            ],
            [
              118.78779793,
              32.03435465,
              25.001
            ],
            [
              118.78719261,
              32.03435465,
              25.006
            ],
            [
              118.78719261,
              32.03505031,
              27.616
            ]
          ]
        ]
      }
    },
    {
      "type": "Feature",
      "properties": {
        "dataset": "park_building_footprint",
        "building_id": "BLD_C_001",
        "name": "中央主厂房",
        "zone_code": "C",
        "source_facility_id": "ut-center",
        "source_facility_name": "公用工程与管廊区",
        "type": "production",
        "is_hazard": 1,
        "personnel": 28,
        "confidence": "high",
        "status": "confirmed",
        "source": "s3m_oblique_manual_interpretation_draft",
        "precisionLevel": "building_footprint_draft",
        "needsDesktopRefinement": false,
        "remark": "基于三维斜视图和设施区底稿自动切分的建筑单体草稿，需在 iDesktopX 中对照三维瓦片最终校核。",
        "mapX": 802.24,
        "mapY": 365.4,
        "s3mX": -384.597,
        "s3mY": 103.507,
        "longitude": 118.78850159,
        "latitude": 32.03671757
      },
      "geometry": {
        "type": "Polygon",
        "coordinates": [
          [
            [
              118.78812857,
              32.03705713,
              31.765
            ],
            [
              118.78887462,
              32.03705713,
              30.568
            ],
            [
              118.78887462,
              32.03637801,
              30.135
            ],
            [
              118.78812857,
              32.03637801,
              31.332
            ],
            [
              118.78812857,
              32.03705713,
              31.765
            ]
          ]
        ]
      }
    },
    {
      "type": "Feature",
      "properties": {
        "dataset": "park_building_footprint",
        "building_id": "BLD_C_002",
        "name": "中央塔器区",
        "zone_code": "C",
        "source_facility_id": "ut-center",
        "source_facility_name": "公用工程与管廊区",
        "type": "tower",
        "is_hazard": 1,
        "personnel": 4,
        "confidence": "medium",
        "status": "pending",
        "source": "s3m_oblique_manual_interpretation_draft",
        "precisionLevel": "building_footprint_draft",
        "needsDesktopRefinement": true,
        "remark": "基于三维斜视图和设施区底稿自动切分的建筑单体草稿，需在 iDesktopX 中对照三维瓦片最终校核。",
        "mapX": 802.24,
        "mapY": 478.8,
        "s3mX": -384.597,
        "s3mY": -136.946,
        "longitude": 118.78850159,
        "latitude": 32.03569889
      },
      "geometry": {
        "type": "Polygon",
        "coordinates": [
          [
            [
              118.78824047,
              32.03607618,
              30.679
            ],
            [
              118.78876271,
              32.03607618,
              29.83
            ],
            [
              118.78876271,
              32.0353216,
              27.434
            ],
            [
              118.78824047,
              32.0353216,
              28.283
            ],
            [
              118.78824047,
              32.03607618,
              30.679
            ]
          ]
        ]
      }
    },
    {
      "type": "Feature",
      "properties": {
        "dataset": "park_building_footprint",
        "building_id": "BLD_C_003",
        "name": "中央公用工程区",
        "zone_code": "C",
        "source_facility_id": "ut-center",
        "source_facility_name": "公用工程与管廊区",
        "type": "utility",
        "is_hazard": 0,
        "personnel": 6,
        "confidence": "medium",
        "status": "pending",
        "source": "s3m_oblique_manual_interpretation_draft",
        "precisionLevel": "building_footprint_draft",
        "needsDesktopRefinement": true,
        "remark": "基于三维斜视图和设施区底稿自动切分的建筑单体草稿，需在 iDesktopX 中对照三维瓦片最终校核。",
        "mapX": 804,
        "mapY": 592.2,
        "s3mX": -381.917,
        "s3mY": -377.399,
        "longitude": 118.78852024,
        "latitude": 32.0346802
      },
      "geometry": {
        "type": "Polygon",
        "coordinates": [
          [
            [
              118.78822182,
              32.03501976,
              27.073
            ],
            [
              118.78881866,
              32.03501976,
              26.097
            ],
            [
              118.78881866,
              32.03434064,
              23.57
            ],
            [
              118.78822182,
              32.03434064,
              24.547
            ],
            [
              118.78822182,
              32.03501976,
              27.073
            ]
          ]
        ]
      }
    },
    {
      "type": "Feature",
      "properties": {
        "dataset": "park_building_footprint",
        "building_id": "BLD_E_001",
        "name": "中东装置框架区",
        "zone_code": "E",
        "source_facility_id": "tw-center",
        "source_facility_name": "中东塔器与罐组区",
        "type": "production",
        "is_hazard": 1,
        "personnel": 14,
        "confidence": "medium",
        "status": "pending",
        "source": "s3m_oblique_manual_interpretation_draft",
        "precisionLevel": "building_footprint_draft",
        "needsDesktopRefinement": true,
        "remark": "基于三维斜视图和设施区底稿自动切分的建筑单体草稿，需在 iDesktopX 中对照三维瓦片最终校核。",
        "mapX": 901,
        "mapY": 336,
        "s3mX": -234.246,
        "s3mY": 165.847,
        "longitude": 118.78954818,
        "latitude": 32.03698167
      },
      "geometry": {
        "type": "Polygon",
        "coordinates": [
          [
            [
              118.78916668,
              32.03735897,
              30.142
            ],
            [
              118.78992969,
              32.03735897,
              28.974
            ],
            [
              118.78992969,
              32.03660438,
              28.644
            ],
            [
              118.78916668,
              32.03660438,
              29.812
            ],
            [
              118.78916668,
              32.03735897,
              30.142
            ]
          ]
        ]
      }
    },
    {
      "type": "Feature",
      "properties": {
        "dataset": "park_building_footprint",
        "building_id": "BLD_E_002",
        "name": "中东塔器罐组",
        "zone_code": "E",
        "source_facility_id": "tw-center",
        "source_facility_name": "中东塔器与罐组区",
        "type": "tank",
        "is_hazard": 1,
        "personnel": 4,
        "confidence": "medium",
        "status": "pending",
        "source": "s3m_oblique_manual_interpretation_draft",
        "precisionLevel": "building_footprint_draft",
        "needsDesktopRefinement": true,
        "remark": "基于三维斜视图和设施区底稿自动切分的建筑单体草稿，需在 iDesktopX 中对照三维瓦片最终校核。",
        "mapX": 901,
        "mapY": 453.6,
        "s3mX": -234.246,
        "s3mY": -83.512,
        "longitude": 118.78954818,
        "latitude": 32.03592526
      },
      "geometry": {
        "type": "Polygon",
        "coordinates": [
          [
            [
              118.78920483,
              32.03630255,
              29.412
            ],
            [
              118.78989154,
              32.03630255,
              28.355
            ],
            [
              118.78989154,
              32.03554797,
              26.41
            ],
            [
              118.78920483,
              32.03554797,
              27.467
            ],
            [
              118.78920483,
              32.03630255,
              29.412
            ]
          ]
        ]
      }
    },
    {
      "type": "Feature",
      "properties": {
        "dataset": "park_building_footprint",
        "building_id": "BLD_E_003",
        "name": "中东南侧厂房",
        "zone_code": "E",
        "source_facility_id": "tw-center",
        "source_facility_name": "中东塔器与罐组区",
        "type": "production",
        "is_hazard": 1,
        "personnel": 16,
        "confidence": "medium",
        "status": "pending",
        "source": "s3m_oblique_manual_interpretation_draft",
        "precisionLevel": "building_footprint_draft",
        "needsDesktopRefinement": true,
        "remark": "基于三维斜视图和设施区底稿自动切分的建筑单体草稿，需在 iDesktopX 中对照三维瓦片最终校核。",
        "mapX": 901,
        "mapY": 579.6,
        "s3mX": -234.246,
        "s3mY": -350.682,
        "longitude": 118.78954818,
        "latitude": 32.03479339
      },
      "geometry": {
        "type": "Polygon",
        "coordinates": [
          [
            [
              118.78916668,
              32.03517068,
              26.066
            ],
            [
              118.78992969,
              32.03517068,
              24.899
            ],
            [
              118.78992969,
              32.0344161,
              21.984
            ],
            [
              118.78916668,
              32.0344161,
              23.152
            ],
            [
              118.78916668,
              32.03517068,
              26.066
            ]
          ]
        ]
      }
    },
    {
      "type": "Feature",
      "properties": {
        "dataset": "park_building_footprint",
        "building_id": "BLD_G_001",
        "name": "东北西侧储罐组",
        "zone_code": "G",
        "source_facility_id": "pb-north-tank",
        "source_facility_name": "东北罐组与管汇区",
        "type": "tank",
        "is_hazard": 1,
        "personnel": 2,
        "confidence": "high",
        "status": "confirmed",
        "source": "s3m_oblique_manual_interpretation_draft",
        "precisionLevel": "building_footprint_draft",
        "needsDesktopRefinement": false,
        "remark": "基于三维斜视图和设施区底稿自动切分的建筑单体草稿，需在 iDesktopX 中对照三维瓦片最终校核。",
        "mapX": 1015.8,
        "mapY": 318.3,
        "s3mX": -59.476,
        "s3mY": 203.378,
        "longitude": 118.79076475,
        "latitude": 32.03714068
      },
      "geometry": {
        "type": "Polygon",
        "coordinates": [
          [
            [
              118.79035146,
              32.03749192,
              28.783
            ],
            [
              118.79117805,
              32.03749192,
              29.217
            ],
            [
              118.79117805,
              32.03678944,
              28.908
            ],
            [
              118.79035146,
              32.03678944,
              28.474
            ],
            [
              118.79035146,
              32.03749192,
              28.783
            ]
          ]
        ]
      }
    },
    {
      "type": "Feature",
      "properties": {
        "dataset": "park_building_footprint",
        "building_id": "BLD_G_002",
        "name": "东北东侧储罐组",
        "zone_code": "G",
        "source_facility_id": "pb-north-tank",
        "source_facility_name": "东北罐组与管汇区",
        "type": "tank",
        "is_hazard": 1,
        "personnel": 2,
        "confidence": "high",
        "status": "confirmed",
        "source": "s3m_oblique_manual_interpretation_draft",
        "precisionLevel": "building_footprint_draft",
        "needsDesktopRefinement": false,
        "remark": "基于三维斜视图和设施区底稿自动切分的建筑单体草稿，需在 iDesktopX 中对照三维瓦片最终校核。",
        "mapX": 1135.4,
        "mapY": 318.3,
        "s3mX": 122.602,
        "s3mY": 203.378,
        "longitude": 118.79203219,
        "latitude": 32.03714068
      },
      "geometry": {
        "type": "Polygon",
        "coordinates": [
          [
            [
              118.79156379,
              32.03749192,
              29.795
            ],
            [
              118.7925006,
              32.03749192,
              31.491
            ],
            [
              118.7925006,
              32.03678944,
              31.182
            ],
            [
              118.79156379,
              32.03678944,
              29.486
            ],
            [
              118.79156379,
              32.03749192,
              29.795
            ]
          ]
        ]
      }
    },
    {
      "type": "Feature",
      "properties": {
        "dataset": "park_building_footprint",
        "building_id": "BLD_G_003",
        "name": "东北管汇装卸区",
        "zone_code": "G",
        "source_facility_id": "pb-north-tank",
        "source_facility_name": "东北罐组与管汇区",
        "type": "utility",
        "is_hazard": 1,
        "personnel": 4,
        "confidence": "medium",
        "status": "pending",
        "source": "s3m_oblique_manual_interpretation_draft",
        "precisionLevel": "building_footprint_draft",
        "needsDesktopRefinement": true,
        "remark": "基于三维斜视图和设施区底稿自动切分的建筑单体草稿，需在 iDesktopX 中对照三维瓦片最终校核。",
        "mapX": 1086,
        "mapY": 386.3,
        "s3mX": 47.396,
        "s3mY": 59.191,
        "longitude": 118.79150869,
        "latitude": 32.03652982
      },
      "geometry": {
        "type": "Polygon",
        "coordinates": [
          [
            [
              118.79062699,
              32.03666727,
              28.409
            ],
            [
              118.79239038,
              32.03666727,
              30.931
            ],
            [
              118.79239038,
              32.03639238,
              30.679
            ],
            [
              118.79062699,
              32.03639238,
              28.157
            ],
            [
              118.79062699,
              32.03666727,
              28.409
            ]
          ]
        ]
      }
    },
    {
      "type": "Feature",
      "properties": {
        "dataset": "park_building_footprint",
        "building_id": "BLD_F_001",
        "name": "东南主生产厂房",
        "zone_code": "F",
        "source_facility_id": "pb-mid-process",
        "source_facility_name": "东中生产与污水装置区",
        "type": "production",
        "is_hazard": 1,
        "personnel": 28,
        "confidence": "high",
        "status": "confirmed",
        "source": "s3m_oblique_manual_interpretation_draft",
        "precisionLevel": "building_footprint_draft",
        "needsDesktopRefinement": false,
        "remark": "基于三维斜视图和设施区底稿自动切分的建筑单体草稿，需在 iDesktopX 中对照三维瓦片最终校核。",
        "mapX": 1086,
        "mapY": 452.48,
        "s3mX": 47.396,
        "s3mY": -81.137,
        "longitude": 118.79150869,
        "latitude": 32.03593532
      },
      "geometry": {
        "type": "Polygon",
        "coordinates": [
          [
            [
              118.79035146,
              32.03608121,
              27.636
            ],
            [
              118.79266591,
              32.03608121,
              30.596
            ],
            [
              118.79266591,
              32.03578944,
              29.847
            ],
            [
              118.79035146,
              32.03578944,
              26.887
            ],
            [
              118.79035146,
              32.03608121,
              27.636
            ]
          ]
        ]
      }
    },
    {
      "type": "Feature",
      "properties": {
        "dataset": "park_building_footprint",
        "building_id": "BLD_F_002",
        "name": "东南设备区",
        "zone_code": "F",
        "source_facility_id": "pb-mid-process",
        "source_facility_name": "东中生产与污水装置区",
        "type": "utility",
        "is_hazard": 1,
        "personnel": 8,
        "confidence": "medium",
        "status": "pending",
        "source": "s3m_oblique_manual_interpretation_draft",
        "precisionLevel": "building_footprint_draft",
        "needsDesktopRefinement": true,
        "remark": "基于三维斜视图和设施区底稿自动切分的建筑单体草稿，需在 iDesktopX 中对照三维瓦片最终校核。",
        "mapX": 1034,
        "mapY": 501.2,
        "s3mX": -31.768,
        "s3mY": -184.443,
        "longitude": 118.79095763,
        "latitude": 32.03549766
      },
      "geometry": {
        "type": "Polygon",
        "coordinates": [
          [
            [
              118.79046167,
              32.03564355,
              26.404
            ],
            [
              118.79145358,
              32.03564355,
              27.252
            ],
            [
              118.79145358,
              32.03535178,
              26.178
            ],
            [
              118.79046167,
              32.03535178,
              25.331
            ],
            [
              118.79046167,
              32.03564355,
              26.404
            ]
          ]
        ]
      }
    },
    {
      "type": "Feature",
      "properties": {
        "dataset": "park_building_footprint",
        "building_id": "BLD_F_003",
        "name": "东南辅助厂房",
        "zone_code": "F",
        "source_facility_id": "pb-mid-process",
        "source_facility_name": "东中生产与污水装置区",
        "type": "warehouse",
        "is_hazard": 0,
        "personnel": 16,
        "confidence": "medium",
        "status": "pending",
        "source": "s3m_oblique_manual_interpretation_draft",
        "precisionLevel": "building_footprint_draft",
        "needsDesktopRefinement": true,
        "remark": "基于三维斜视图和设施区底稿自动切分的建筑单体草稿，需在 iDesktopX 中对照三维瓦片最终校核。",
        "mapX": 1148.4,
        "mapY": 501.2,
        "s3mX": 142.393,
        "s3mY": -184.443,
        "longitude": 118.79216996,
        "latitude": 32.03549766
      },
      "geometry": {
        "type": "Polygon",
        "coordinates": [
          [
            [
              118.79172911,
              32.03564355,
              27.726
            ],
            [
              118.79261081,
              32.03564355,
              29.302
            ],
            [
              118.79261081,
              32.03535178,
              28.228
            ],
            [
              118.79172911,
              32.03535178,
              26.652
            ],
            [
              118.79172911,
              32.03564355,
              27.726
            ]
          ]
        ]
      }
    },
    {
      "type": "Feature",
      "properties": {
        "dataset": "park_building_footprint",
        "building_id": "BLD_J_001",
        "name": "南侧小罐组",
        "zone_code": "J",
        "source_facility_id": "fs-east-yard",
        "source_facility_name": "东侧应急与装卸边界区",
        "type": "tank",
        "is_hazard": 1,
        "personnel": 2,
        "confidence": "medium",
        "status": "pending",
        "source": "s3m_oblique_manual_interpretation_draft",
        "precisionLevel": "building_footprint_draft",
        "needsDesktopRefinement": true,
        "remark": "基于三维斜视图和设施区底稿自动切分的建筑单体草稿，需在 iDesktopX 中对照三维瓦片最终校核。",
        "mapX": 1030,
        "mapY": 571.28,
        "s3mX": -37.858,
        "s3mY": -333.04,
        "longitude": 118.79091524,
        "latitude": 32.03486813
      },
      "geometry": {
        "type": "Polygon",
        "coordinates": [
          [
            [
              118.79054475,
              32.03502659,
              24.008
            ],
            [
              118.79128572,
              32.03502659,
              24.6
            ],
            [
              118.79128572,
              32.03470967,
              23.324
            ],
            [
              118.79054475,
              32.03470967,
              22.732
            ],
            [
              118.79054475,
              32.03502659,
              24.008
            ]
          ]
        ]
      }
    },
    {
      "type": "Feature",
      "properties": {
        "dataset": "park_building_footprint",
        "building_id": "BLD_J_002",
        "name": "南侧装置区",
        "zone_code": "J",
        "source_facility_id": "fs-east-yard",
        "source_facility_name": "东侧应急与装卸边界区",
        "type": "production",
        "is_hazard": 1,
        "personnel": 8,
        "confidence": "low",
        "status": "pending",
        "source": "s3m_oblique_manual_interpretation_draft",
        "precisionLevel": "building_footprint_draft",
        "needsDesktopRefinement": true,
        "remark": "基于三维斜视图和设施区底稿自动切分的建筑单体草稿，需在 iDesktopX 中对照三维瓦片最终校核。",
        "mapX": 1030,
        "mapY": 625.46,
        "s3mX": -37.858,
        "s3mY": -447.923,
        "longitude": 118.79091524,
        "latitude": 32.03438142
      },
      "geometry": {
        "type": "Polygon",
        "coordinates": [
          [
            [
              118.79058375,
              32.03452857,
              22.072
            ],
            [
              118.79124672,
              32.03452857,
              22.604
            ],
            [
              118.79124672,
              32.03423428,
              21.688
            ],
            [
              118.79058375,
              32.03423428,
              21.155
            ],
            [
              118.79058375,
              32.03452857,
              22.072
            ]
          ]
        ]
      }
    },
    {
      "type": "Feature",
      "properties": {
        "dataset": "park_building_footprint",
        "building_id": "BLD_H_001",
        "name": "东侧仓储建筑一",
        "zone_code": "H",
        "source_facility_id": "wh-logistics",
        "source_facility_name": "东南仓储物流区",
        "type": "warehouse",
        "is_hazard": 0,
        "personnel": 24,
        "confidence": "high",
        "status": "confirmed",
        "source": "s3m_oblique_manual_interpretation_draft",
        "precisionLevel": "building_footprint_draft",
        "needsDesktopRefinement": false,
        "remark": "基于三维斜视图和设施区底稿自动切分的建筑单体草稿，需在 iDesktopX 中对照三维瓦片最终校核。",
        "mapX": 1112.4,
        "mapY": 562.46,
        "s3mX": 87.587,
        "s3mY": -314.338,
        "longitude": 118.79178846,
        "latitude": 32.03494736
      },
      "geometry": {
        "type": "Polygon",
        "coordinates": [
          [
            [
              118.79155108,
              32.03507186,
              25.201
            ],
            [
              118.79202584,
              32.03507186,
              26.069
            ],
            [
              118.79202584,
              32.03482285,
              25.05
            ],
            [
              118.79155108,
              32.03482285,
              24.182
            ],
            [
              118.79155108,
              32.03507186,
              25.201
            ]
          ]
        ]
      }
    },
    {
      "type": "Feature",
      "properties": {
        "dataset": "park_building_footprint",
        "building_id": "BLD_H_002",
        "name": "东侧仓储建筑二",
        "zone_code": "H",
        "source_facility_id": "wh-logistics",
        "source_facility_name": "东南仓储物流区",
        "type": "warehouse",
        "is_hazard": 0,
        "personnel": 18,
        "confidence": "high",
        "status": "confirmed",
        "source": "s3m_oblique_manual_interpretation_draft",
        "precisionLevel": "building_footprint_draft",
        "needsDesktopRefinement": false,
        "remark": "基于三维斜视图和设施区底稿自动切分的建筑单体草稿，需在 iDesktopX 中对照三维瓦片最终校核。",
        "mapX": 1179.6,
        "mapY": 562.46,
        "s3mX": 189.891,
        "s3mY": -314.338,
        "longitude": 118.7925006,
        "latitude": 32.03494736
      },
      "geometry": {
        "type": "Polygon",
        "coordinates": [
          [
            [
              118.79226322,
              32.03507186,
              26.509
            ],
            [
              118.79273797,
              32.03507186,
              27.27
            ],
            [
              118.79273797,
              32.03482285,
              26.251
            ],
            [
              118.79226322,
              32.03482285,
              25.491
            ],
            [
              118.79226322,
              32.03507186,
              26.509
            ]
          ]
        ]
      }
    },
    {
      "type": "Feature",
      "properties": {
        "dataset": "park_building_footprint",
        "building_id": "BLD_H_003",
        "name": "东侧辅助建筑一",
        "zone_code": "H",
        "source_facility_id": "wh-logistics",
        "source_facility_name": "东南仓储物流区",
        "type": "office",
        "is_hazard": 0,
        "personnel": 20,
        "confidence": "medium",
        "status": "pending",
        "source": "s3m_oblique_manual_interpretation_draft",
        "precisionLevel": "building_footprint_draft",
        "needsDesktopRefinement": true,
        "remark": "基于三维斜视图和设施区底稿自动切分的建筑单体草稿，需在 iDesktopX 中对照三维瓦片最终校核。",
        "mapX": 1112.4,
        "mapY": 616.64,
        "s3mX": 87.587,
        "s3mY": -429.221,
        "longitude": 118.79178846,
        "latitude": 32.03446065
      },
      "geometry": {
        "type": "Polygon",
        "coordinates": [
          [
            [
              118.79155108,
              32.03459648,
              23.314
            ],
            [
              118.79202584,
              32.03459648,
              24.182
            ],
            [
              118.79202584,
              32.03432483,
              23.28
            ],
            [
              118.79155108,
              32.03432483,
              22.412
            ],
            [
              118.79155108,
              32.03459648,
              23.314
            ]
          ]
        ]
      }
    },
    {
      "type": "Feature",
      "properties": {
        "dataset": "park_building_footprint",
        "building_id": "BLD_H_004",
        "name": "东侧辅助建筑二",
        "zone_code": "H",
        "source_facility_id": "wh-logistics",
        "source_facility_name": "东南仓储物流区",
        "type": "utility",
        "is_hazard": 0,
        "personnel": 12,
        "confidence": "medium",
        "status": "pending",
        "source": "s3m_oblique_manual_interpretation_draft",
        "precisionLevel": "building_footprint_draft",
        "needsDesktopRefinement": true,
        "remark": "基于三维斜视图和设施区底稿自动切分的建筑单体草稿，需在 iDesktopX 中对照三维瓦片最终校核。",
        "mapX": 1179.6,
        "mapY": 616.64,
        "s3mX": 189.891,
        "s3mY": -429.221,
        "longitude": 118.7925006,
        "latitude": 32.03446065
      },
      "geometry": {
        "type": "Polygon",
        "coordinates": [
          [
            [
              118.79226322,
              32.03459648,
              24.622
            ],
            [
              118.79273797,
              32.03459648,
              25.383
            ],
            [
              118.79273797,
              32.03432483,
              24.481
            ],
            [
              118.79226322,
              32.03432483,
              23.72
            ],
            [
              118.79226322,
              32.03459648,
              24.622
            ]
          ]
        ]
      }
    }
  ]
}
